{
  "type": "FeatureCollection",
  "features": [
    {
      "type": "Feature",
      "properties": {
        "norad_id": 43823,
        "name": "GEO-KOMPSAT-2A",
        "group": "weather",
        "lat": 0.0010988864223654723,
        "lon": -101.54819667010017,
        "alt_km": 35785.01273837255,
        "timestamp": "2025-12-04T03:47:54.197647+00:00",
        "meta_object_name": "GEO-KOMPSAT-2A",
        "meta_object_id": "2018-100A",
        "meta_epoch": "2025-12-03T17:35:40.685856",
        "meta_mean_motion": 1.00269729,
        "meta_eccentricity": 5.41e-05,
        "meta_inclination": 0.0596,
        "meta_ra_of_asc_node": 121.241,
        "meta_arg_of_pericenter": 95.287,
        "meta_mean_anomaly": 248.4703,
        "meta_ephemeris_type": 0,
        "meta_classification_type": "U",
        "meta_norad_cat_id": 43823,
        "meta_element_set_no": 999,
        "meta_rev_at_epoch": 2567,
        "meta_bstar": 0,
        "meta_mean_motion_dot": -3.26e-06,
        "meta_mean_motion_ddot": 0,
        "tle_line1": "1 43823U 18100A   25337.73310979 -.00000326  00000+0  00000+0 0  9999",
        "tle_line2": "2 43823   0.0596 121.2410 0000541  95.2870 248.4703  1.00269729 25678"
      },
      "geometry": {
        "type": "Point",
        "coordinates": [
          -101.54819667010017,
          0.0010988864223654723
        ]
      }
    },
    {
      "type": "Feature",
      "properties": {
        "norad_id": 44387,
        "name": "METEOR-M2 2",
        "group": "weather",
        "lat": -40.71974098473358,
        "lon": -34.46955934990488,
        "alt_km": 817.9676299834555,
        "timestamp": "2025-12-04T03:47:54.197657+00:00",
        "meta_object_name": "METEOR-M2 2",
        "meta_object_id": "2019-038A",
        "meta_epoch": "2025-12-03T21:14:52.974240",
        "meta_mean_motion": 14.24285378,
        "meta_eccentricity": 9.02e-05,
        "meta_inclination": 98.8963,
        "meta_ra_of_asc_node": 317.5062,
        "meta_arg_of_pericenter": 166.7244,
        "meta_mean_anomaly": 193.3958,
        "meta_ephemeris_type": 0,
        "meta_classification_type": "U",
        "meta_norad_cat_id": 44387,
        "meta_element_set_no": 999,
        "meta_rev_at_epoch": 33349,
        "meta_bstar": 0.00014204,
        "meta_mean_motion_dot": 2.82e-06,
        "meta_mean_motion_ddot": 0,
        "tle_line1": "1 44387U 19038A   25337.88533535  .00000282  00000+0  14204-3 0  9992",
        "tle_line2": "2 44387  98.8963 317.5062 0000902 166.7244 193.3958 14.24285378333490"
      },
      "geometry": {
        "type": "Point",
        "coordinates": [
          -34.46955934990488,
          -40.71974098473358
        ]
      }
    },
    {
      "type": "Feature",
      "properties": {
        "norad_id": 47719,
        "name": "ARKTIKA-M 1",
        "group": "weather",
        "lat": 42.645359470088536,
        "lon": 112.92083535531147,
        "alt_km": 22346.491708654732,
        "timestamp": "2025-12-04T03:47:54.197670+00:00",
        "meta_object_name": "ARKTIKA-M 1",
        "meta_object_id": "2021-016A",
        "meta_epoch": "2025-12-01T02:41:41.634816",
        "meta_mean_motion": 2.00613156,
        "meta_eccentricity": 0.71974708,
        "meta_inclination": 63.1756,
        "meta_ra_of_asc_node": 85.6045,
        "meta_arg_of_pericenter": 269.084,
        "meta_mean_anomaly": 15.7076,
        "meta_ephemeris_type": 0,
        "meta_classification_type": "U",
        "meta_norad_cat_id": 47719,
        "meta_element_set_no": 999,
        "meta_rev_at_epoch": 3481,
        "meta_bstar": 0,
        "meta_mean_motion_dot": -1.2e-07,
        "meta_mean_motion_ddot": 0,
        "tle_line1": "1 47719U 21016A   25335.11228744 -.00000012  00000+0  00000+0 0  9997",
        "tle_line2": "2 47719  63.1756  85.6045 7197470 269.0840  15.7076  2.00613156 34816"
      },
      "geometry": {
        "type": "Point",
        "coordinates": [
          112.92083535531147,
          42.645359470088536
        ]
      }
    },
    {
      "type": "Feature",
      "properties": {
        "norad_id": 49008,
        "name": "FENGYUN 3E",
        "group": "weather",
        "lat": 53.2449116532904,
        "lon": -33.115791603563714,
        "alt_km": 820.7470980498429,
        "timestamp": "2025-12-04T03:47:54.197683+00:00",
        "meta_object_name": "FENGYUN 3E",
        "meta_object_id": "2021-062A",
        "meta_epoch": "2025-12-03T20:46:45.397344",
        "meta_mean_motion": 14.1987807,
        "meta_eccentricity": 7.4e-05,
        "meta_inclination": 98.7476,
        "meta_ra_of_asc_node": 338.4922,
        "meta_arg_of_pericenter": 322.7064,
        "meta_mean_anomaly": 37.406,
        "meta_ephemeris_type": 0,
        "meta_classification_type": "U",
        "meta_norad_cat_id": 49008,
        "meta_element_set_no": 999,
        "meta_rev_at_epoch": 22886,
        "meta_bstar": 4.5059e-05,
        "meta_mean_motion_dot": 5.2e-07,
        "meta_mean_motion_ddot": 0,
        "tle_line1": "1 49008U 21062A   25337.86580321  .00000052  00000+0  45059-4 0  9998",
        "tle_line2": "2 49008  98.7476 338.4922 0000740 322.7064  37.4060 14.19878070228861"
      },
      "geometry": {
        "type": "Point",
        "coordinates": [
          -33.115791603563714,
          53.2449116532904
        ]
      }
    },
    {
      "type": "Feature",
      "properties": {
        "norad_id": 51850,
        "name": "GOES 18",
        "group": "weather",
        "lat": -0.001347039215165978,
        "lon": -6.806994370598273,
        "alt_km": 35784.88270094051,
        "timestamp": "2025-12-04T03:47:54.197695+00:00",
        "meta_object_name": "GOES 18",
        "meta_object_id": "2022-021A",
        "meta_epoch": "2025-12-03T16:30:38.739168",
        "meta_mean_motion": 1.00270453,
        "meta_eccentricity": 7.98e-05,
        "meta_inclination": 0.0031,
        "meta_ra_of_asc_node": 64.4496,
        "meta_arg_of_pericenter": 225.9944,
        "meta_mean_anomaly": 252.9877,
        "meta_ephemeris_type": 0,
        "meta_classification_type": "U",
        "meta_norad_cat_id": 51850,
        "meta_element_set_no": 999,
        "meta_rev_at_epoch": 463,
        "meta_bstar": 0,
        "meta_mean_motion_dot": 1.14e-06,
        "meta_mean_motion_ddot": 0,
        "tle_line1": "1 51850U 22021A   25337.68794837  .00000114  00000+0  00000+0 0  9992",
        "tle_line2": "2 51850   0.0031  64.4496 0000798 225.9944 252.9877  1.00270453  4632"
      },
      "geometry": {
        "type": "Point",
        "coordinates": [
          -6.806994370598273,
          -0.001347039215165978
        ]
      }
    },
    {
      "type": "Feature",
      "properties": {
        "norad_id": 54234,
        "name": "NOAA 21 (JPSS-2)",
        "group": "weather",
        "lat": 69.69162913160237,
        "lon": -110.00275714825817,
        "alt_km": 818.4571118783679,
        "timestamp": "2025-12-04T03:47:54.197706+00:00",
        "meta_object_name": "NOAA 21 (JPSS-2)",
        "meta_object_id": "2022-150A",
        "meta_epoch": "2025-12-03T19:00:14.967360",
        "meta_mean_motion": 14.19520042,
        "meta_eccentricity": 0.0002527,
        "meta_inclination": 98.7448,
        "meta_ra_of_asc_node": 274.2123,
        "meta_arg_of_pericenter": 54.6238,
        "meta_mean_anomaly": 305.5174,
        "meta_ephemeris_type": 0,
        "meta_classification_type": "U",
        "meta_norad_cat_id": 54234,
        "meta_element_set_no": 999,
        "meta_rev_at_epoch": 15882,
        "meta_bstar": 9.4371e-05,
        "meta_mean_motion_dot": 1.55e-06,
        "meta_mean_motion_ddot": 0,
        "tle_line1": "1 54234U 22150A   25337.79183990  .00000155  00000+0  94371-4 0  9992",
        "tle_line2": "2 54234  98.7448 274.2123 0002527  54.6238 305.5174 14.19520042158822"
      },
      "geometry": {
        "type": "Point",
        "coordinates": [
          -110.00275714825817,
          69.69162913160237
        ]
      }
    },
    {
      "type": "Feature",
      "properties": {
        "norad_id": 54743,
        "name": "METEOSAT-12 (MTG-I1)",
        "group": "weather",
        "lat": 0.7129080597560308,
        "lon": 129.8926180959712,
        "alt_km": 35788.31139284263,
        "timestamp": "2025-12-04T03:47:54.197734+00:00",
        "meta_object_name": "METEOSAT-12 (MTG-I1)",
        "meta_object_id": "2022-170C",
        "meta_epoch": "2025-12-03T18:42:38.602944",
        "meta_mean_motion": 1.00273728,
        "meta_eccentricity": 0.000152,
        "meta_inclination": 0.7181,
        "meta_ra_of_asc_node": 30.0784,
        "meta_arg_of_pericenter": 216.336,
        "meta_mean_anomaly": 106.8238,
        "meta_ephemeris_type": 0,
        "meta_classification_type": "U",
        "meta_norad_cat_id": 54743,
        "meta_element_set_no": 999,
        "meta_rev_at_epoch": 1101,
        "meta_bstar": 0,
        "meta_mean_motion_dot": 1e-07,
        "meta_mean_motion_ddot": 0,
        "tle_line1": "1 54743U 22170C   25337.77961346  .00000010  00000+0  00000+0 0  9997",
        "tle_line2": "2 54743   0.7181  30.0784 0001520 216.3360 106.8238  1.00273728 11014"
      },
      "geometry": {
        "type": "Point",
        "coordinates": [
          129.8926180959712,
          0.7129080597560308
        ]
      }
    }
  ]
}